satname,norad_id,inclination_deg,eccentricity,mean_motion_rev_per_day,perigee_km,apogee_km,l1,l2
STARLINK-1493,45759,53.0543,0.0001658,15.06395738,546.0763954285749,548.3728453418944,1 45759U 20038AF  25336.58874477  .00002978  00000+0  21874-3 0  9992,2 45759  53.0543 292.5190 0001658  87.9594 272.1585 15.06395738301834
STARLINK-1494,45760,53.0539,0.0005634,15.54302557,400.3596103275013,408.00192598866215,1 45760U 20038AG  25336.20218132  .00045586  00000+0  68805-3 0  9990,2 45760  53.0539 268.9186 0005634 103.8081 256.3556 15.54302557302147
STARLINK-1502,45764,53.0561,0.000173,15.06347082,546.175635375138,548.5718620941998,1 45764U 20038AL  25336.15751541 -.00011939  00000+0 -78509-3 0  9993,2 45764  53.0561 294.4566 0001730  88.8637 271.2550 15.06347082301782
STARLINK-1470,45772,53.051,0.0006936,15.20083552,500.81380580230143,510.3629096185159,1 45772U 20038AU  25336.21354449  .00021099  00000+0  97657-3 0  9996,2 45772  53.0510 263.8832 0006936  41.2640 318.8878 15.20083552302216
STARLINK-1482,45773,53.0544,0.0001254,15.06418052,546.2877999394877,548.0246634820005,1 45773U 20038AV  25336.25515889  .00012132  00000+0  83156-3 0  9995,2 45773  53.0544 274.0148 0001254  97.5595 262.5536 15.06418052302070
STARLINK-1496,45780,53.0535,0.0001335,15.06410185,546.2558126908316,548.1048724212942,1 45780U 20038BC  25336.15564728  .00016601  00000+0  11304-2 0  9998,2 45780  53.0535 274.4630 0001335  78.6973 281.4166 15.06410185302043
STARLINK-1497,45781,53.0357,0.000713,15.64029112,371.2167406689041,380.8481863238503,1 45781U 20038BD  25336.80879083  .00091146  00000+0  94085-3 0  9999,2 45781  53.0357 204.7592 0007130  88.1091 272.0739 15.64029112303093
STARLINK-1510,45784,53.0249,0.0002668,15.84736085,315.28167957653295,318.85424094332666,1 45784U 20038BG  25336.91670139  .00333201  00000+0  13577-2 0  9992,2 45784  53.0249 176.1028 0002668 187.3235 249.2542 15.84736085  5829
STARLINK-1513,45786,53.0553,0.000152,15.06403939,546.1468343511078,548.2521366426981,1 45786U 20038BJ  25336.25146891  .00000992  00000+0  85459-4 0  9992,2 45786  53.0553 274.0361 0001520  90.0030 270.1133 15.06403939302075
STARLINK-1522,46027,53.0545,0.0001438,15.06398541,546.2201638011011,548.2118953324043,1 46027U 20055A   25336.82925955  .00000607  00000+0  59672-4 0  9990,2 46027  53.0545 201.4403 0001438  91.2748 268.8406 15.06398541294285
STARLINK-1523,46028,53.0538,0.0001777,15.06385465,546.0254636231193,548.4867483329836,1 46028U 20055B   25336.84400520  .00008965  00000+0  62019-3 0  9992,2 46028  53.0538 201.3746 0001777 103.2184 256.9003 15.06385465294306
STARLINK-1526,46029,53.0542,0.0001558,15.063973,546.140862467174,548.2988036563565,1 46029U 20055C   25336.83662863  .00000912  00000+0  80115-4 0  9994,2 46029  53.0542 201.4052 0001558  91.7809 268.3358 15.06397300294294
STARLINK-1555,46032,53.0539,0.0001769,15.06396084,545.9984636572162,548.4486562233242,1 46032U 20055F   25336.82188054 -.00000378  00000+0 -65000-5 0  9997,2 46032  53.0539 201.4735 0001769  87.5058 272.6133 15.06396084294292
STARLINK-1556,46033,53.0548,0.00017,15.06394801,546.0501802066428,548.4048041339811,1 46033U 20055G   25336.80345620  .00000623  00000+0  60699-4 0  9999,2 46033  53.0548 201.5563 0001700  87.4198 272.6986 15.06394801294260
STARLINK-1557,46034,53.0552,0.0001611,15.06394486,546.1127812304449,548.3441339808851,1 46034U 20055H   25336.80713692  .00000317  00000+0  40163-4 0  9992,2 46034  53.0552 201.5399 0001611  79.2494 280.8677 15.06394486294269
STARLINK-1558,46035,53.0544,0.0001691,15.06398722,546.0443977234872,548.3865519304727,1 46035U 20055J   25336.81450632  .00000314  00000+0  39992-4 0  9991,2 46035  53.0544 201.5076 0001691  95.7453 264.3729 15.06398722294294
STARLINK-1560,46036,53.0543,0.0001632,15.06393321,546.1018079615587,548.3622484123589,1 46036U 20055K   25336.79976866 -.00000377  00000+0 -64404-5 0  9999,2 46036  53.0543 201.5758 0001632  89.1938 270.9238 15.06393321294299
STARLINK-1567,46038,53.0547,0.0001587,15.06398683,546.1165408998122,548.3146478132612,1 46038U 20055M   25336.81082698  .00002166  00000+0  16424-3 0  9998,2 46038  53.0547 201.5255 0001587  89.3153 270.8018 15.06398683294287
STARLINK-1569,46039,53.0535,0.0001528,15.06394937,546.1688797168217,548.2852709782464,1 46039U 20055N   25336.88454522 -.00000022  00000+0  17406-4 0  9997,2 46039  53.0535 201.1941 0001528  91.5668 268.5495 15.06394937294296
STARLINK-1582,46043,53.0537,0.0001387,15.06397556,546.2585015724835,548.1795953403252,1 46043U 20055S   25336.82556988  .00001169  00000+0  97348-4 0  9990,2 46043  53.0537 201.4568 0001387  94.3109 265.8039 15.06397556294288
STARLINK-1591,46045,53.0542,0.0001472,15.06398914,546.1954745761905,548.2342981715392,1 46045U 20055U   25336.85137012  .00000995  00000+0  85712-4 0  9996,2 46045  53.0542 201.3409 0001472  93.3825 266.7332 15.06398914294272
STARLINK-1524,46047,53.0538,0.0001505,15.06412787,546.1301088422915,548.2146269620307,1 46047U 20055W   25336.87070535  .00002593  00000+0  19285-3 0  9993,2 46047  53.0538 191.2541 0001505 107.0276 253.0878 15.06412787294430
STARLINK-1527,46048,53.0532,0.0001538,15.06398681,546.1504812563016,548.2807197162119,1 46048U 20055X   25336.80068424  .00000005  00000+0  19267-4 0  9998,2 46048  53.0532 191.5679 0001538  94.5961 265.5203 15.06398681294400
STARLINK-1540,46051,53.0545,0.0001649,15.06417191,546.016889211246,548.3008517893359,1 46051U 20055AA  25336.83383480  .00004229  00000+0  30251-3 0  9994,2 46051  53.0545 191.4216 0001649  84.2300 275.8877 15.06417191294443
STARLINK-1541,46052,53.0525,0.0001282,15.06401594,546.3188435033398,548.0945016209853,1 46052U 20055AB  25336.81911163  .00000667  00000+0  63683-4 0  9996,2 46052  53.0525 191.4851 0001282  88.9355 271.1781 15.06401594294400
STARLINK-1543,46053,53.0526,0.0001367,15.06402937,546.2558625535385,548.1492503882782,1 46053U 20055AC  25336.82280378  .00001817  00000+0  14083-3 0  9992,2 46053  53.0526 191.4691 0001367  87.1104 273.0041 15.06402937294436
STARLINK-1548,46054,53.0537,0.0001263,15.0639288,546.3587055197913,548.1080540777293,1 46054U 20055AD  25336.83018003  .00000524  00000+0  54078-4 0  9991,2 46054  53.0537 191.4344 0001263  98.1701 261.9432 15.06392880294439
STARLINK-1554,46055,53.0534,0.0001552,15.06409449,546.1077886639077,548.2574078672105,1 46055U 20055AE  25336.88178779  .00003030  00000+0  22216-3 0  9997,2 46055  53.0534 191.2050 0001552  93.3079 266.8088 15.06409449294447
